{"type": "FeatureCollection", "features": [ {"type": "Feature", "properties": {"norad_id": 38552, "name": "METEOSAT-10 (MSG-3)", "group": "weather", "lat": 4.269767650050938, "lon": 151.6687082270996, "alt_km": 35787.10658744224, "timestamp": "2025-12-24T03:53:29.284995+00:00", "meta": {"OBJECT_NAME": "METEOSAT-10 (MSG-3)", "OBJECT_ID": "2012-035B", "EPOCH": "2025-12-23T01:08:58.915968", "MEAN_MOTION": 1.0027689, "ECCENTRICITY": 7.313e-05, "INCLINATION": 4.2513, "RA_OF_ASC_NODE": 61.6947, "ARG_OF_PERICENTER": 264.0711, "MEAN_ANOMALY": 143.6614, "EPHEMERIS_TYPE": 0, "CLASSIFICATION_TYPE": "U", "NORAD_CAT_ID": 38552, "ELEMENT_SET_NO": 999, "REV_AT_EPOCH": 4909, "BSTAR": 0, "MEAN_MOTION_DOT": 1.6e-07, "MEAN_MOTION_DDOT": 0}, "tle": {"line1": "1 38552U 12035B   25357.04790412  .00000016  00000+0  00000+0 0  9998", "line2": "2 38552   4.2513  61.6947 0000731 264.0711 143.6614  1.00276890 49095"}}, "geometry": {"type": "Point", "coordinates": [151.6687082270996, 4.269767650050938]}}, {"type": "Feature", "properties": {"norad_id": 38771, "name": "METOP-B", "group": "weather", "lat": -4.234882633066064, "lon": -132.72163422233177, "alt_km": 823.0174133660494, "timestamp": "2025-12-24T03:53:29.285007+00:00", "meta": {"OBJECT_NAME": "METOP-B", "OBJECT_ID": "2012-049A", "EPOCH": "2025-12-23T18:34:51.578976", "MEAN_MOTION": 14.21412415, "ECCENTRICITY": 0.0003251, "INCLINATION": 98.6783, "RA_OF_ASC_NODE": 47.5451, "ARG_OF_PERICENTER": 120.9791, "MEAN_ANOMALY": 239.1706, "EPHEMERIS_TYPE": 0, "CLASSIFICATION_TYPE": "U", "NORAD_CAT_ID": 38771, "ELEMENT_SET_NO": 999, "REV_AT_EPOCH": 68834, "BSTAR": 7.5947e-05, "MEAN_MOTION_DOT": 1.22e-06, "MEAN_MOTION_DDOT": 0}, "tle": {"line1": "1 38771U 12049A   25357.77420809  .00000122  00000+0  75947-4 0  9991", "line2": "2 38771  98.6783  47.5451 0003251 120.9791 239.1706 14.21412415688347"}}, "geometry": {"type": "Point", "coordinates": [-132.72163422233177, -4.234882633066064]}}, {"type": "Feature", "properties": {"norad_id": 39216, "name": "INSAT-3D", "group": "weather", "lat": -0.4281294348215036, "lon": -79.15187503468381, "alt_km": 35779.30596026252, "timestamp": "2025-12-24T03:53:29.285019+00:00", "meta": {"OBJECT_NAME": "INSAT-3D", "OBJECT_ID": "2013-038B", "EPOCH": "2025-12-23T18:53:03.733728", "MEAN_MOTION": 1.00275136, "ECCENTRICITY": 0.0001865, "INCLINATION": 1.4717, "RA_OF_ASC_NODE": 84.8727, "ARG_OF_PERICENTER": 154.7679, "MEAN_ANOMALY": 265.7223, "EPHEMERIS_TYPE": 0, "CLASSIFICATION_TYPE": "U", "NORAD_CAT_ID": 39216, "ELEMENT_SET_NO": 999, "REV_AT_EPOCH": 4532, "BSTAR": 0, "MEAN_MOTION_DOT": -3.18e-06, "MEAN_MOTION_DDOT": 0}, "tle": {"line1": "1 39216U 13038B   25357.78684877 -.00000318  00000+0  00000+0 0  9994", "line2": "2 39216   1.4717  84.8727 0001865 154.7679 265.7223  1.00275136 45324"}}, "geometry": {"type": "Point", "coordinates": [-79.15187503468381, -0.4281294348215036]}}, {"type": "Feature", "properties": {"norad_id": 39260, "name": "FENGYUN 3C", "group": "weather", "lat": -16.37865669138396, "lon": 152.77200194971041, "alt_km": 835.7325690450598, "timestamp": "2025-12-24T03:53:29.285030+00:00", "meta": {"OBJECT_NAME": "FENGYUN 3C", "OBJECT_ID": "2013-052A", "EPOCH": "2025-12-23T21:52:42.131136", "MEAN_MOTION": 14.15699493, "ECCENTRICITY": 0.00149, "INCLINATION": 98.4777, "RA_OF_ASC_NODE": 335.0461, "ARG_OF_PERICENTER": 163.7605, "MEAN_ANOMALY": 196.405, "EPHEMERIS_TYPE": 0, "CLASSIFICATION_TYPE": "U", "NORAD_CAT_ID": 39260, "ELEMENT_SET_NO": 999, "REV_AT_EPOCH": 63376, "BSTAR": 7.3263e-05, "MEAN_MOTION_DOT": 1.03e-06, "MEAN_MOTION_DDOT": 0}, "tle": {"line1": "1 39260U 13052A   25357.91159874  .00000103  00000+0  73263-4 0  9995", "line2": "2 39260  98.4777 335.0461 0014900 163.7605 196.4050 14.15699493633769"}}, "geometry": {"type": "Point", "coordinates": [152.77200194971041, -16.37865669138396]}}, {"type": "Feature", "properties": {"norad_id": 40069, "name": "METEOR-M 2", "group": "weather", "lat": 50.50096804980352, "lon": -35.132687970265685, "alt_km": 818.1574543527004, "timestamp": "2025-12-24T03:53:29.285041+00:00", "meta": {"OBJECT_NAME": "METEOR-M 2", "OBJECT_ID": "2014-037A", "EPOCH": "2025-12-23T20:53:34.942848", "MEAN_MOTION": 14.21389634, "ECCENTRICITY": 0.0005583, "INCLINATION": 98.4913, "RA_OF_ASC_NODE": 335.0284, "ARG_OF_PERICENTER": 174.8599, "MEAN_ANOMALY": 185.2637, "EPHEMERIS_TYPE": 0, "CLASSIFICATION_TYPE": "U", "NORAD_CAT_ID": 40069, "ELEMENT_SET_NO": 999, "REV_AT_EPOCH": 59441, "BSTAR": -1.3946e-05, "MEAN_MOTION_DOT": -7.2e-07, "MEAN_MOTION_DDOT": 0}, "tle": {"line1": "1 40069U 14037A   25357.87054332 -.00000072  00000+0 -13946-4 0  9995", "line2": "2 40069  98.4913 335.0284 0005583 174.8599 185.2637 14.21389634594410"}}, "geometry": {"type": "Point", "coordinates": [-35.132687970265685, 50.50096804980352]}}, {"type": "Feature", "properties": {"norad_id": 40267, "name": "HIMAWARI-8", "group": "weather", "lat": 3.8098871482039e-05, "lon": -68.02702828414489, "alt_km": 35782.54474084051, "timestamp": "2025-12-24T03:53:29.285054+00:00", "meta": {"OBJECT_NAME": "HIMAWARI-8", "OBJECT_ID": "2014-060A", "EPOCH": "2025-12-23T18:56:10.934880", "MEAN_MOTION": 1.00271913, "ECCENTRICITY": 8.58e-05, "INCLINATION": 0.045, "RA_OF_ASC_NODE": 209.8564, "ARG_OF_PERICENTER": 94.6054, "MEAN_ANOMALY": 212.8254, "EPHEMERIS_TYPE": 0, "CLASSIFICATION_TYPE": "U", "NORAD_CAT_ID": 40267, "ELEMENT_SET_NO": 999, "REV_AT_EPOCH": 4100, "BSTAR": 0, "MEAN_MOTION_DOT": -2.54e-06, "MEAN_MOTION_DDOT": 0}, "tle": {"line1": "1 40267U 14060A   25357.78901545 -.00000254  00000+0  00000+0 0  9991", "line2": "2 40267   0.0450 209.8564 0000858  94.6054 212.8254  1.00271913 41006"}}, "geometry": {"type": "Point", "coordinates": [-68.02702828414489, 3.8098871482039e-05]}}, {"type": "Feature", "properties": {"norad_id": 40367, "name": "FENGYUN 2G", "group": "weather", "lat": 0.38621139630737006, "lon": -109.47187541850118, "alt_km": 35775.36637936344, "timestamp": "2025-12-24T03:53:29.285066+00:00", "meta": {"OBJECT_NAME": "FENGYUN 2G", "OBJECT_ID": "2014-090A", "EPOCH": "2025-12-23T18:44:19.570848", "MEAN_MOTION": 1.00283037, "ECCENTRICITY": 0.0001794, "INCLINATION": 5.1935, "RA_OF_ASC_NODE": 74.9603, "ARG_OF_PERICENTER": 171.7462, "MEAN_ANOMALY": 226.1214, "EPHEMERIS_TYPE": 0, "CLASSIFICATION_TYPE": "U", "NORAD_CAT_ID": 40367, "ELEMENT_SET_NO": 999, "REV_AT_EPOCH": 4024, "BSTAR": 0, "MEAN_MOTION_DOT": -2.82e-06, "MEAN_MOTION_DDOT": 0}, "tle": {"line1": "1 40367U 14090A   25357.78078207 -.00000282  00000+0  00000+0 0  9996", "line2": "2 40367   5.1935  74.9603 0001794 171.7462 226.1214  1.00283037 40245"}}, "geometry": {"type": "Point", "coordinates": [-109.47187541850118, 0.38621139630737006]}}, {"type": "Feature", "properties": {"norad_id": 40732, "name": "METEOSAT-11 (MSG-4)", "group": "weather", "lat": 2.7771095144386364, "lon": 160.4861169481199, "alt_km": 35783.86967880525, "timestamp": "2025-12-24T03:53:29.285079+00:00", "meta": {"OBJECT_NAME": "METEOSAT-11 (MSG-4)", "OBJECT_ID": "2015-034A", "EPOCH": "2025-12-23T18:18:44.521056", "MEAN_MOTION": 1.00270943, "ECCENTRICITY": 7.45e-05, "INCLINATION": 2.7639, "RA_OF_ASC_NODE": 71.9711, "ARG_OF_PERICENTER": 137.2582, "MEAN_ANOMALY": 167.1898, "EPHEMERIS_TYPE": 0, "CLASSIFICATION_TYPE": "U", "NORAD_CAT_ID": 40732, "ELEMENT_SET_NO": 999, "REV_AT_EPOCH": 545, "BSTAR": 0, "MEAN_MOTION_DOT": 8.1e-07, "MEAN_MOTION_DDOT": 0}, "tle": {"line1": "1 40732U 15034A   25357.76301529  .00000081  00000+0  00000+0 0  9991", "line2": "2 40732   2.7639  71.9711 0000745 137.2582 167.1898  1.00270943  5455"}}, "geometry": {"type": "Point", "coordinates": [160.4861169481199, 2.7771095144386364]}}, {"type": "Feature", "properties": {"norad_id": 41105, "name": "ELEKTRO-L 2", "group": "weather", "lat": 5.643818907745512, "lon": 136.68369871780519, "alt_km": 35797.37775448792, "timestamp": "2025-12-24T03:53:29.285092+00:00", "meta": {"OBJECT_NAME": "ELEKTRO-L 2", "OBJECT_ID": "2015-074A", "EPOCH": "2025-12-23T01:04:44.322816", "MEAN_MOTION": 1.00272278, "ECCENTRICITY": 0.00035203, "INCLINATION": 6.25, "RA_OF_ASC_NODE": 72.7058, "ARG_OF_PERICENTER": 208.6905, "MEAN_ANOMALY": 172.1579, "EPHEMERIS_TYPE": 0, "CLASSIFICATION_TYPE": "U", "NORAD_CAT_ID": 41105, "ELEMENT_SET_NO": 999, "REV_AT_EPOCH": 3674, "BSTAR": 0, "MEAN_MOTION_DOT": -9.9e-07, "MEAN_MOTION_DDOT": 0}, "tle": {"line1": "1 41105U 15074A   25357.04495744 -.00000099  00000+0  00000+0 0  9994", "line2": "2 41105   6.2500  72.7058 0003520 208.6905 172.1579  1.00272278 36746"}}, "geometry": {"type": "Point", "coordinates": [136.68369871780519, 5.643818907745512]}}, {"type": "Feature", "properties": {"norad_id": 41752, "name": "INSAT-3DR", "group": "weather", "lat": 0.06488127989656343, "lon": -134.82251012485463, "alt_km": 35744.75975692079, "timestamp": "2025-12-24T03:53:29.285104+00:00", "meta": {"OBJECT_NAME": "INSAT-3DR", "OBJECT_ID": "2016-054A", "EPOCH": "2025-12-23T19:27:50.577120", "MEAN_MOTION": 1.0027147, "ECCENTRICITY": 0.0014229, "INCLINATION": 0.1179, "RA_OF_ASC_NODE": 86.2295, "ARG_OF_PERICENTER": 185.5832, "MEAN_ANOMALY": 186.7331, "EPHEMERIS_TYPE": 0, "CLASSIFICATION_TYPE": "U", "NORAD_CAT_ID": 41752, "ELEMENT_SET_NO": 999, "REV_AT_EPOCH": 3406, "BSTAR": 0, "MEAN_MOTION_DOT": -5.6e-07, "MEAN_MOTION_DDOT": 0}, "tle": {"line1": "1 41752U 16054A   25357.81100205 -.00000056  00000+0  00000+0 0  9994", "line2": "2 41752   0.1179  86.2295 0014229 185.5832 186.7331  1.00271470 34065"}}, "geometry": {"type": "Point", "coordinates": [-134.82251012485463, 0.06488127989656343]}}]}